[
    {
        "Altitude(m)": 705348.2313913396,
        "Argument of Periapsis(deg)": 0.006834072711976239,
        "Eccentricity": 0.0,
        "Inclination(deg)": 45.0,
        "Latitude(deg)": 36.02672901141505,
        "Longitude(deg)": -54.12031912941333,
        "Mean Anomaly(deg)": 56.010829988488496,
        "RAAN(deg)": -0.00645116487492236,
        "Satellite Name": "Constellation 1 3",
        "Satellite Number": 3,
        "Semi-Major Axis(m)": 7083131.272910544,
        "Time(s)": 114
    },
    {
        "Altitude(m)": 705354.1051880849,
        "Argument of Periapsis(deg)": 0.006894020718221645,
        "Eccentricity": 0.0,
        "Inclination(deg)": 45.0,
        "Latitude(deg)": 36.05645895597783,
        "Longitude(deg)": -54.05901377208432,
        "Mean Anomaly(deg)": 56.0715311287384,
        "RAAN(deg)": -0.006507754040491855,
        "Satellite Name": "Constellation 1 3",
        "Satellite Number": 3,
        "Semi-Major Axis(m)": 7083131.272910544,
        "Time(s)": 115
    },
    {
        "Altitude(m)": 705359.9761396679,
        "Argument of Periapsis(deg)": 0.006953968724467052,
        "Eccentricity": 0.0,
        "Inclination(deg)": 45.0,
        "Latitude(deg)": 36.08615304321095,
        "Longitude(deg)": -53.99765925406985,
        "Mean Anomaly(deg)": 56.13223226898829,
        "RAAN(deg)": -0.006564343206061349,
        "Satellite Name": "Constellation 1 3",
        "Satellite Number": 3,
        "Semi-Major Axis(m)": 7083131.272910544,
        "Time(s)": 116
    },
    {
        "Altitude(m)": 705365.8442091526,
        "Argument of Periapsis(deg)": 0.007013916730712457,
        "Eccentricity": 0.0,
        "Inclination(deg)": 45.0,
        "Latitude(deg)": 36.11581120790825,
        "Longitude(deg)": -53.9362555441657,
        "Mean Anomaly(deg)": 56.192933409238194,
        "RAAN(deg)": -0.006620932371630844,
        "Satellite Name": "Constellation 1 3",
        "Satellite Number": 3,
        "Semi-Major Axis(m)": 7083131.272910544,
        "Time(s)": 117
    },
    {
        "Altitude(m)": 705371.7093596235,
        "Argument of Periapsis(deg)": 0.007073864736957864,
        "Eccentricity": 0.0,
        "Inclination(deg)": 45.0,
        "Latitude(deg)": 36.1454333848074,
        "Longitude(deg)": -53.87480261141537,
        "Mean Anomaly(deg)": 56.2536345494881,
        "RAAN(deg)": -0.006677521537200338,
        "Satellite Name": "Constellation 1 3",
        "Satellite Number": 3,
        "Semi-Major Axis(m)": 7083131.272910544,
        "Time(s)": 118
    },
    {
        "Altitude(m)": 705377.5715541978,
        "Argument of Periapsis(deg)": 0.0071338127432032696,
        "Eccentricity": 0.0,
        "Inclination(deg)": 45.0,
        "Latitude(deg)": 36.17501950859003,
        "Longitude(deg)": -53.81330059320797,
        "Mean Anomaly(deg)": 56.31433568973799,
        "RAAN(deg)": -0.0067341107027698325,
        "Satellite Name": "Constellation 1 3",
        "Satellite Number": 3,
        "Semi-Major Axis(m)": 7083131.272910544,
        "Time(s)": 119
    },
    {
        "Altitude(m)": 705383.4307560346,
        "Argument of Periapsis(deg)": 0.007193760749448674,
        "Eccentricity": 0.0,
        "Inclination(deg)": 45.0,
        "Latitude(deg)": 36.20456951388255,
        "Longitude(deg)": -53.751749122892505,
        "Mean Anomaly(deg)": 56.37503682998789,
        "RAAN(deg)": -0.0067906998683393265,
        "Satellite Name": "Constellation 1 3",
        "Satellite Number": 3,
        "Semi-Major Axis(m)": 7083131.272910544,
        "Time(s)": 120
    },
    {
        "Altitude(m)": 705389.2869283062,
        "Argument of Periapsis(deg)": 0.007253708755694079,
        "Eccentricity": 0.0,
        "Inclination(deg)": 45.0,
        "Latitude(deg)": 36.234083335255534,
        "Longitude(deg)": -53.69014833836005,
        "Mean Anomaly(deg)": 56.43573797023779,
        "RAAN(deg)": -0.006847289033908821,
        "Satellite Name": "Constellation 1 3",
        "Satellite Number": 3,
        "Semi-Major Axis(m)": 7083131.272910544,
        "Time(s)": 121
    },
    {
        "Altitude(m)": 705395.140034231,
        "Argument of Periapsis(deg)": 0.0073136567619394854,
        "Eccentricity": 0.0,
        "Inclination(deg)": 45.0,
        "Latitude(deg)": 36.26356090722452,
        "Longitude(deg)": -53.62849820965777,
        "Mean Anomaly(deg)": 56.496439110487685,
        "RAAN(deg)": -0.0069038781994783145,
        "Satellite Name": "Constellation 1 3",
        "Satellite Number": 3,
        "Semi-Major Axis(m)": 7083131.272910544,
        "Time(s)": 122
    },
    {
        "Altitude(m)": 705400.9900370485,
        "Argument of Periapsis(deg)": 0.0073736047681848904,
        "Eccentricity": 0.0,
        "Inclination(deg)": 45.0,
        "Latitude(deg)": 36.29300216425028,
        "Longitude(deg)": -53.56679870708718,
        "Mean Anomaly(deg)": 56.557140250737575,
        "RAAN(deg)": -0.0069604673650478085,
        "Satellite Name": "Constellation 1 3",
        "Satellite Number": 3,
        "Semi-Major Axis(m)": 7083131.272910544,
        "Time(s)": 123
    },
    {
        "Altitude(m)": 705406.836900032,
        "Argument of Periapsis(deg)": 0.007433552774430298,
        "Eccentricity": 0.0,
        "Inclination(deg)": 45.0,
        "Latitude(deg)": 36.322407040738845,
        "Longitude(deg)": -53.505049801205416,
        "Mean Anomaly(deg)": 56.617841390987486,
        "RAAN(deg)": -0.007017056530617304,
        "Satellite Name": "Constellation 1 3",
        "Satellite Number": 3,
        "Semi-Major Axis(m)": 7083131.272910544,
        "Time(s)": 124
    },
    {
        "Altitude(m)": 705412.6805864896,
        "Argument of Periapsis(deg)": 0.007493500780675703,
        "Eccentricity": 0.0,
        "Inclination(deg)": 45.0,
        "Latitude(deg)": 36.35177547104199,
        "Longitude(deg)": -53.44325146282675,
        "Mean Anomaly(deg)": 56.67854253123738,
        "RAAN(deg)": -0.007073645696186799,
        "Satellite Name": "Constellation 1 3",
        "Satellite Number": 3,
        "Semi-Major Axis(m)": 7083131.272910544,
        "Time(s)": 125
    },
    {
        "Altitude(m)": 705418.5210597594,
        "Argument of Periapsis(deg)": 0.007553448786921108,
        "Eccentricity": 0.0,
        "Inclination(deg)": 45.0,
        "Latitude(deg)": 36.381107389457235,
        "Longitude(deg)": -53.38140383112052,
        "Mean Anomaly(deg)": 56.73924367148729,
        "RAAN(deg)": -0.007130234861756293,
        "Satellite Name": "Constellation 1 3",
        "Satellite Number": 3,
        "Semi-Major Axis(m)": 7083131.272910544,
        "Time(s)": 126
    },
    {
        "Altitude(m)": 705424.3582832041,
        "Argument of Periapsis(deg)": 0.007613396793166514,
        "Eccentricity": 0.0,
        "Inclination(deg)": 45.0,
        "Latitude(deg)": 36.41040273022878,
        "Longitude(deg)": -53.319506541225365,
        "Mean Anomaly(deg)": 56.79994481173718,
        "RAAN(deg)": -0.007186824027325788,
        "Satellite Name": "Constellation 1 3",
        "Satellite Number": 3,
        "Semi-Major Axis(m)": 7083131.272910544,
        "Time(s)": 127
    },
    {
        "Altitude(m)": 705430.1922202309,
        "Argument of Periapsis(deg)": 0.007673344799411918,
        "Eccentricity": 0.0,
        "Inclination(deg)": 45.0,
        "Latitude(deg)": 36.439661427546774,
        "Longitude(deg)": -53.25755973283144,
        "Mean Anomaly(deg)": 56.86064595198708,
        "RAAN(deg)": -0.007243413192895281,
        "Satellite Name": "Constellation 1 3",
        "Satellite Number": 3,
        "Semi-Major Axis(m)": 7083131.272910544,
        "Time(s)": 128
    },
    {
        "Altitude(m)": 705436.0228342708,
        "Argument of Periapsis(deg)": 0.007733292805657325,
        "Eccentricity": 0.0,
        "Inclination(deg)": 45.0,
        "Latitude(deg)": 36.46888341554837,
        "Longitude(deg)": -53.1955633777946,
        "Mean Anomaly(deg)": 56.92134709223697,
        "RAAN(deg)": -0.007300002358464777,
        "Satellite Name": "Constellation 1 3",
        "Satellite Number": 3,
        "Semi-Major Axis(m)": 7083131.272910544,
        "Time(s)": 129
    },
    {
        "Altitude(m)": 705441.8500887883,
        "Argument of Periapsis(deg)": 0.00779324081190273,
        "Eccentricity": 0.0,
        "Inclination(deg)": 45.0,
        "Latitude(deg)": 36.49806862831765,
        "Longitude(deg)": -53.13351744823445,
        "Mean Anomaly(deg)": 56.982048232486875,
        "RAAN(deg)": -0.00735659152403427,
        "Satellite Name": "Constellation 1 3",
        "Satellite Number": 3,
        "Semi-Major Axis(m)": 7083131.272910544,
        "Time(s)": 130
    },
    {
        "Altitude(m)": 705447.6739472782,
        "Argument of Periapsis(deg)": 0.007853188818148135,
        "Eccentricity": 0.0,
        "Inclination(deg)": 45.0,
        "Latitude(deg)": 36.52721699988609,
        "Longitude(deg)": -53.07142191653594,
        "Mean Anomaly(deg)": 57.04274937273678,
        "RAAN(deg)": -0.007413180689603763,
        "Satellite Name": "Constellation 1 3",
        "Satellite Number": 3,
        "Semi-Major Axis(m)": 7083131.272910544,
        "Time(s)": 131
    },
    {
        "Altitude(m)": 705453.4943732739,
        "Argument of Periapsis(deg)": 0.007913136824393542,
        "Eccentricity": 0.0,
        "Inclination(deg)": 45.0,
        "Latitude(deg)": 36.556328464232735,
        "Longitude(deg)": -53.00927675535038,
        "Mean Anomaly(deg)": 57.10345051298667,
        "RAAN(deg)": -0.00746976985517326,
        "Satellite Name": "Constellation 1 3",
        "Satellite Number": 3,
        "Semi-Major Axis(m)": 7083131.272910544,
        "Time(s)": 132
    }
]